{"fetched_at":"2026-07-07T07:58:10.717Z","source":"https://celestrak.org/NORAD/elements/gp.php?GROUP=oneweb&FORMAT=JSON","constellation":"oneweb","records":[{"OBJECT_NAME":"ONEWEB-0206","OBJECT_ID":"2021-031T","EPOCH":"2026-07-06T16:09:12.537792","CLASSIFICATION_TYPE":"U","MEAN_MOTION":13.14501496,"ECCENTRICITY":0.0001843,"INCLINATION":87.8977,"RA_OF_ASC_NODE":285.8161,"ARG_OF_PERICENTER":100.3889,"MEAN_ANOMALY":259.7449,"EPHEMERIS_TYPE":0,"NORAD_CAT_ID":48227,"ELEMENT_SET_NO":999,"REV_AT_EPOCH":25078,"BSTAR":-0.00025788,"MEAN_MOTION_DOT":-8.3e-7,"MEAN_MOTION_DDOT":0},{"OBJECT_NAME":"ONEWEB-0182","OBJECT_ID":"2021-031U","EPOCH":"2026-07-06T16:02:22.059168","CLASSIFICATION_TYPE":"U","MEAN_MOTION":13.14503409,"ECCENTRICITY":0.0001964,"INCLINATION":87.8974,"RA_OF_ASC_NODE":285.8241,"ARG_OF_PERICENTER":93.3519,"MEAN_ANOMALY":266.7835,"EPHEMERIS_TYPE":0,"NORAD_CAT_ID":48228,"ELEMENT_SET_NO":999,"REV_AT_EPOCH":25099,"BSTAR":-0.0000026488,"MEAN_MOTION_DOT":1.2e-7,"MEAN_MOTION_DDOT":0},{"OBJECT_NAME":"ONEWEB-0186","OBJECT_ID":"2021-031V","EPOCH":"2026-07-06T16:18:21.276288","CLASSIFICATION_TYPE":"U","MEAN_MOTION":13.14502545,"ECCENTRICITY":0.0002122,"INCLINATION":87.8983,"RA_OF_ASC_NODE":285.8142,"ARG_OF_PERICENTER":99.7033,"MEAN_ANOMALY":260.4337,"EPHEMERIS_TYPE":0,"NORAD_CAT_ID":48229,"ELEMENT_SET_NO":999,"REV_AT_EPOCH":25094,"BSTAR":-0.00053282,"MEAN_MOTION_DOT":-0.00000185,"MEAN_MOTION_DDOT":0},{"OBJECT_NAME":"ONEWEB-0181","OBJECT_ID":"2021-031W","EPOCH":"2026-07-06T15:46:22.238112","CLASSIFICATION_TYPE":"U","MEAN_MOTION":13.14504023,"ECCENTRICITY":0.0002231,"INCLINATION":87.8962,"RA_OF_ASC_NODE":285.8443,"ARG_OF_PERICENTER":102.1708,"MEAN_ANOMALY":257.9672,"EPHEMERIS_TYPE":0,"NORAD_CAT_ID":48230,"ELEMENT_SET_NO":999,"REV_AT_EPOCH":25079,"BSTAR":0.00021984,"MEAN_MOTION_DOT":9.4e-7,"MEAN_MOTION_DDOT":0},{"OBJECT_NAME":"ONEWEB-0188","OBJECT_ID":"2021-031X","EPOCH":"2026-07-06T16:41:10.927104","CLASSIFICATION_TYPE":"U","MEAN_MOTION":13.14502276,"ECCENTRICITY":0.0002073,"INCLINATION":87.8963,"RA_OF_ASC_NODE":285.8366,"ARG_OF_PERICENTER":99.12,"MEAN_ANOMALY":261.0164,"EPHEMERIS_TYPE":0,"NORAD_CAT_ID":48231,"ELEMENT_SET_NO":999,"REV_AT_EPOCH":25070,"BSTAR":-0.00040035,"MEAN_MOTION_DOT":-0.00000136,"MEAN_MOTION_DDOT":0},{"OBJECT_NAME":"ONEWEB-0220","OBJECT_ID":"2021-031Y","EPOCH":"2026-07-06T15:48:39.595104","CLASSIFICATION_TYPE":"U","MEAN_MOTION":13.14502384,"ECCENTRICITY":0.0002309,"INCLINATION":87.8981,"RA_OF_ASC_NODE":285.8196,"ARG_OF_PERICENTER":96.0385,"MEAN_ANOMALY":264.1008,"EPHEMERIS_TYPE":0,"NORAD_CAT_ID":48232,"ELEMENT_SET_NO":999,"REV_AT_EPOCH":25096,"BSTAR":0.000023575,"MEAN_MOTION_DOT":2.2e-7,"MEAN_MOTION_DDOT":0},{"OBJECT_NAME":"ONEWEB-0165","OBJECT_ID":"2021-031Z","EPOCH":"2026-07-06T20:09:00.099072","CLASSIFICATION_TYPE":"U","MEAN_MOTION":13.14503357,"ECCENTRICITY":0.0002381,"INCLINATION":87.8973,"RA_OF_ASC_NODE":285.7955,"ARG_OF_PERICENTER":105.9066,"MEAN_ANOMALY":254.2326,"EPHEMERIS_TYPE":0,"NORAD_CAT_ID":48233,"ELEMENT_SET_NO":999,"REV_AT_EPOCH":25094,"BSTAR":-0.00070342,"MEAN_MOTION_DOT":-0.00000248,"MEAN_MOTION_DDOT":0},{"OBJECT_NAME":"ONEWEB-0199","OBJECT_ID":"2021-031AA","EPOCH":"2026-07-06T16:06:56.136384","CLASSIFICATION_TYPE":"U","MEAN_MOTION":13.14501763,"ECCENTRICITY":0.0001838,"INCLINATION":87.8981,"RA_OF_ASC_NODE":285.8157,"ARG_OF_PERICENTER":99.1676,"MEAN_ANOMALY":260.9661,"EPHEMERIS_TYPE":0,"NORAD_CAT_ID":48234,"ELEMENT_SET_NO":999,"REV_AT_EPOCH":25082,"BSTAR":-0.00019357,"MEAN_MOTION_DOT":-5.9e-7,"MEAN_MOTION_DDOT":0},{"OBJECT_NAME":"ONEWEB-0203","OBJECT_ID":"2021-031AB","EPOCH":"2026-07-06T15:53:13.485696","CLASSIFICATION_TYPE":"U","MEAN_MOTION":13.14500936,"ECCENTRICITY":0.0001962,"INCLINATION":87.898,"RA_OF_ASC_NODE":285.8206,"ARG_OF_PERICENTER":105.2709,"MEAN_ANOMALY":254.8638,"EPHEMERIS_TYPE":0,"NORAD_CAT_ID":48235,"ELEMENT_SET_NO":999,"REV_AT_EPOCH":25083,"BSTAR":0.00020746,"MEAN_MOTION_DOT":9e-7,"MEAN_MOTION_DDOT":0},{"OBJECT_NAME":"ONEWEB-0197","OBJECT_ID":"2021-031AC","EPOCH":"2026-07-06T17:06:06.113664","CLASSIFICATION_TYPE":"U","MEAN_MOTION":13.14502406,"ECCENTRICITY":0.0002051,"INCLINATION":87.8968,"RA_OF_ASC_NODE":285.7952,"ARG_OF_PERICENTER":92.6947,"MEAN_ANOMALY":267.4418,"EPHEMERIS_TYPE":0,"NORAD_CAT_ID":48236,"ELEMENT_SET_NO":999,"REV_AT_EPOCH":25075,"BSTAR":0.00044032,"MEAN_MOTION_DOT":0.00000176,"MEAN_MOTION_DDOT":0},{"OBJECT_NAME":"ONEWEB-0194","OBJECT_ID":"2021-031AD","EPOCH":"2026-07-06T16:36:37.380384","CLASSIFICATION_TYPE":"U","MEAN_MOTION":13.14503974,"ECCENTRICITY":0.000183,"INCLINATION":87.8974,"RA_OF_ASC_NODE":285.8224,"ARG_OF_PERICENTER":104.803,"MEAN_ANOMALY":255.3302,"EPHEMERIS_TYPE":0,"NORAD_CAT_ID":48237,"ELEMENT_SET_NO":999,"REV_AT_EPOCH":25092,"BSTAR":-0.00051751,"MEAN_MOTION_DOT":-0.00000179,"MEAN_MOTION_DDOT":0},{"OBJECT_NAME":"ONEWEB-0193","OBJECT_ID":"2021-031AE","EPOCH":"2026-07-06T16:59:27.596256","CLASSIFICATION_TYPE":"U","MEAN_MOTION":13.14502576,"ECCENTRICITY":0.0001637,"INCLINATION":87.8972,"RA_OF_ASC_NODE":285.8094,"ARG_OF_PERICENTER":107.6952,"MEAN_ANOMALY":252.4356,"EPHEMERIS_TYPE":0,"NORAD_CAT_ID":48238,"ELEMENT_SET_NO":999,"REV_AT_EPOCH":25087,"BSTAR":0.00025396,"MEAN_MOTION_DOT":0.00000107,"MEAN_MOTION_DDOT":0},{"OBJECT_NAME":"ONEWEB-0191","OBJECT_ID":"2021-031AF","EPOCH":"2026-07-06T17:15:27.870048","CLASSIFICATION_TYPE":"U","MEAN_MOTION":13.14506234,"ECCENTRICITY":0.0001981,"INCLINATION":87.8978,"RA_OF_ASC_NODE":285.807,"ARG_OF_PERICENTER":94.9121,"MEAN_ANOMALY":265.2235,"EPHEMERIS_TYPE":0,"NORAD_CAT_ID":48239,"ELEMENT_SET_NO":999,"REV_AT_EPOCH":25073,"BSTAR":0.00056972,"MEAN_MOTION_DOT":0.00000224,"MEAN_MOTION_DDOT":0},{"OBJECT_NAME":"ONEWEB-0195","OBJECT_ID":"2021-031AG","EPOCH":"2026-07-06T16:42:20.093760","CLASSIFICATION_TYPE":"U","MEAN_MOTION":13.14503568,"ECCENTRICITY":0.0002386,"INCLINATION":87.8978,"RA_OF_ASC_NODE":285.8123,"ARG_OF_PERICENTER":104.1737,"MEAN_ANOMALY":255.9658,"EPHEMERIS_TYPE":0,"NORAD_CAT_ID":48240,"ELEMENT_SET_NO":999,"REV_AT_EPOCH":25071,"BSTAR":-0.00033294,"MEAN_MOTION_DOT":-0.00000111,"MEAN_MOTION_DDOT":0},{"OBJECT_NAME":"ONEWEB-0201","OBJECT_ID":"2021-031AH","EPOCH":"2026-07-06T20:04:36.755328","CLASSIFICATION_TYPE":"U","MEAN_MOTION":13.14502262,"ECCENTRICITY":0.000213,"INCLINATION":87.8972,"RA_OF_ASC_NODE":285.7987,"ARG_OF_PERICENTER":91.9069,"MEAN_ANOMALY":268.2304,"EPHEMERIS_TYPE":0,"NORAD_CAT_ID":48241,"ELEMENT_SET_NO":999,"REV_AT_EPOCH":25096,"BSTAR":-0.00047969,"MEAN_MOTION_DOT":-0.00000165,"MEAN_MOTION_DDOT":0},{"OBJECT_NAME":"ONEWEB-0207","OBJECT_ID":"2021-031AJ","EPOCH":"2026-07-06T15:56:38.690880","CLASSIFICATION_TYPE":"U","MEAN_MOTION":13.14504664,"ECCENTRICITY":0.0002125,"INCLINATION":87.8979,"RA_OF_ASC_NODE":285.8191,"ARG_OF_PERICENTER":92.8616,"MEAN_ANOMALY":267.2757,"EPHEMERIS_TYPE":0,"NORAD_CAT_ID":48242,"ELEMENT_SET_NO":999,"REV_AT_EPOCH":25085,"BSTAR":0.00010246,"MEAN_MOTION_DOT":5.1e-7,"MEAN_MOTION_DDOT":0},{"OBJECT_NAME":"ONEWEB-0208","OBJECT_ID":"2021-031AK","EPOCH":"2026-07-06T17:20:00.456000","CLASSIFICATION_TYPE":"U","MEAN_MOTION":13.14502018,"ECCENTRICITY":0.0002295,"INCLINATION":87.8971,"RA_OF_ASC_NODE":285.8133,"ARG_OF_PERICENTER":106.0323,"MEAN_ANOMALY":254.106,"EPHEMERIS_TYPE":0,"NORAD_CAT_ID":48243,"ELEMENT_SET_NO":999,"REV_AT_EPOCH":25087,"BSTAR":0.00060992,"MEAN_MOTION_DOT":0.00000239,"MEAN_MOTION_DDOT":0},{"OBJECT_NAME":"ONEWEB-0200","OBJECT_ID":"2021-031AL","EPOCH":"2026-07-06T20:06:42.507072","CLASSIFICATION_TYPE":"U","MEAN_MOTION":13.14502396,"ECCENTRICITY":0.0002107,"INCLINATION":87.8983,"RA_OF_ASC_NODE":285.7785,"ARG_OF_PERICENTER":99.7484,"MEAN_ANOMALY":260.3884,"EPHEMERIS_TYPE":0,"NORAD_CAT_ID":48244,"ELEMENT_SET_NO":999,"REV_AT_EPOCH":25081,"BSTAR":-0.00052839,"MEAN_MOTION_DOT":-0.00000183,"MEAN_MOTION_DDOT":0},{"OBJECT_NAME":"ONEWEB-0217","OBJECT_ID":"2021-031AM","EPOCH":"2026-07-06T16:50:19.492800","CLASSIFICATION_TYPE":"U","MEAN_MOTION":13.14503088,"ECCENTRICITY":0.0002319,"INCLINATION":87.8981,"RA_OF_ASC_NODE":285.81,"ARG_OF_PERICENTER":106.2789,"MEAN_ANOMALY":253.8596,"EPHEMERIS_TYPE":0,"NORAD_CAT_ID":48245,"ELEMENT_SET_NO":999,"REV_AT_EPOCH":25074,"BSTAR":-0.00019971,"MEAN_MOTION_DOT":-6.1e-7,"MEAN_MOTION_DDOT":0},{"OBJECT_NAME":"ONEWEB-0211","OBJECT_ID":"2021-045A","EPOCH":"2026-07-06T15:38:55.791168","CLASSIFICATION_TYPE":"U","MEAN_MOTION":13.16197079,"ECCENTRICITY":0.0002517,"INCLINATION":87.8997,"RA_OF_ASC_NODE":255.1999,"ARG_OF_PERICENTER":111.4414,"MEAN_ANOMALY":248.6985,"EPHEMERIS_TYPE":0,"NORAD_CAT_ID":48767,"ELEMENT_SET_NO":999,"REV_AT_EPOCH":24700,"BSTAR":0.0000082309,"MEAN_MOTION_DOT":1.6e-7,"MEAN_MOTION_DDOT":0},{"OBJECT_NAME":"ONEWEB-0223","OBJECT_ID":"2021-045B","EPOCH":"2026-07-06T15:56:04.742592","CLASSIFICATION_TYPE":"U","MEAN_MOTION":13.15547993,"ECCENTRICITY":0.0002142,"INCLINATION":87.9,"RA_OF_ASC_NODE":255.3112,"ARG_OF_PERICENTER":109.7971,"MEAN_ANOMALY":250.3391,"EPHEMERIS_TYPE":0,"NORAD_CAT_ID":48768,"ELEMENT_SET_NO":999,"REV_AT_EPOCH":24696,"BSTAR":-0.00011021,"MEAN_MOTION_DOT":-2.9e-7,"MEAN_MOTION_DDOT":0},{"OBJECT_NAME":"ONEWEB-0230","OBJECT_ID":"2021-045C","EPOCH":"2026-07-06T17:04:32.134656","CLASSIFICATION_TYPE":"U","MEAN_MOTION":13.15547911,"ECCENTRICITY":0.0001946,"INCLINATION":87.899,"RA_OF_ASC_NODE":255.3136,"ARG_OF_PERICENTER":95.9605,"MEAN_ANOMALY":264.1747,"EPHEMERIS_TYPE":0,"NORAD_CAT_ID":48769,"ELEMENT_SET_NO":999,"REV_AT_EPOCH":24723,"BSTAR":0.00024004,"MEAN_MOTION_DOT":0.00000103,"MEAN_MOTION_DDOT":0},{"OBJECT_NAME":"ONEWEB-0237","OBJECT_ID":"2021-045D","EPOCH":"2026-07-06T14:59:02.010048","CLASSIFICATION_TYPE":"U","MEAN_MOTION":13.15548053,"ECCENTRICITY":0.0002382,"INCLINATION":87.8988,"RA_OF_ASC_NODE":255.3329,"ARG_OF_PERICENTER":100.5243,"MEAN_ANOMALY":259.6155,"EPHEMERIS_TYPE":0,"NORAD_CAT_ID":48770,"ELEMENT_SET_NO":999,"REV_AT_EPOCH":24694,"BSTAR":0.00025016,"MEAN_MOTION_DOT":0.00000107,"MEAN_MOTION_DDOT":0}]}
